KUIPER-00089            
1 64834U 25151U   25230.91742430  .00026455  00000+0  75569-3 0  9997
2 64834  51.8766 125.4032 0005646 275.7805  84.2537 15.35811952  5163
KUIPER-00090            
1 64835U 25151V   25230.92239910  .00028033  00000+0  80631-3 0  9993
2 64835  51.8761 125.4326 0005960 281.3636  78.6680 15.35561448  5167
KUIPER-00091            
1 64836U 25151W   25230.90818344  .00030096  00000+0  84872-3 0  9999
2 64836  51.8787 125.3382 0005104 250.7796 109.2638 15.36146202  5166
KUIPER-00092            
1 64837U 25151X   25230.91142874  .00043196  00000+0  12121-2 0  9991
2 64837  51.8791 125.3582 0005448 272.7210  87.3152 15.36126087  6370
KUIPER-00093            
1 64838U 25151Y   25230.91648546  .00033841  00000+0  96224-3 0  9992
2 64838  51.8791 125.3988 0004856 261.0410  99.0027 15.35830218  5160
KUIPER-00094            
1 64839U 25151Z   25230.13042085  .00025222  00000+0  71611-3 0  9990
2 64839  51.8767 129.1226 0005493 266.8577  93.1780 15.36029082  5279
KUIPER-00081            
1 65132U 25171A   25230.83337963  .00070128  00000+0  19877-2 0  9998
2 65132  51.8771   9.4133 0006037 145.7238 350.4219 15.35591220  1855
KUIPER-00088            
1 65133U 25171B   25230.83337963  .00070860  00000+0  20121-2 0  9996
2 65133  51.8773   9.4188 0005901 147.8481 346.4416 15.35530543  1305
